[{"OBJECT_NAME":"STARLINK-11617 [DTC]","OBJECT_ID":"2025-048B","EPOCH":"2026-03-09T09:42:25.282656","MEAN_MOTION":15.70878522,"ECCENTRICITY":0.00011722,"INCLINATION":42.9985,"RA_OF_ASC_NODE":321.8568,"ARG_OF_PERICENTER":341.0873,"MEAN_ANOMALY":18.9951,"EPHEMERIS_TYPE":0,"CLASSIFICATION_TYPE":"U","NORAD_CAT_ID":63184,"ELEMENT_SET_NO":999,"REV_AT_EPOCH":5847,"BSTAR":0.0019420289,"MEAN_MOTION_DOT":0.00257016,"MEAN_MOTION_DDOT":0},{"OBJECT_NAME":"OBJECT E","OBJECT_ID":"2021-035E","EPOCH":"2026-02-24T23:27:52.334784","MEAN_MOTION":15.69205353,"ECCENTRICITY":0.0007182,"INCLINATION":41.4547,"RA_OF_ASC_NODE":257.9148,"ARG_OF_PERICENTER":354.279,"MEAN_ANOMALY":5.7969,"EPHEMERIS_TYPE":0,"CLASSIFICATION_TYPE":"U","NORAD_CAT_ID":63523,"ELEMENT_SET_NO":999,"REV_AT_EPOCH":5075,"BSTAR":0.00060614223,"MEAN_MOTION_DOT":0.00073106,"MEAN_MOTION_DDOT":0}]
